CCSDS_OMM_VERS = 2.0
CREATION_DATE  = 
ORIGINATOR     = 

OBJECT_NAME    = 2026-027A
OBJECT_ID      = 2026-027A
CENTER_NAME    = EARTH
REF_FRAME      = TEME
TIME_SYSTEM    = UTC
MEAN_ELEMENT_THEORY = SGP/SGP4

EPOCH          = 2026-03-11T19:31:00.880032
MEAN_MOTION    = 15.17757260
ECCENTRICITY   = .0010327
INCLINATION    = 97.4903
RA_OF_ASC_NODE = 199.8040
ARG_OF_PERICENTER = 186.7768
MEAN_ANOMALY   = 173.3328

EPHEMERIS_TYPE = 0
CLASSIFICATION_TYPE = U
NORAD_CAT_ID   = 67746
ELEMENT_SET_NO = 999
REV_AT_EPOCH   = 418
BSTAR          = .45908E-3
MEAN_MOTION_DOT = .9218E-4
MEAN_MOTION_DDOT = 0

CCSDS_OMM_VERS = 2.0
CREATION_DATE  = 
ORIGINATOR     = 

OBJECT_NAME    = 2026-027B
OBJECT_ID      = 2026-027B
CENTER_NAME    = EARTH
REF_FRAME      = TEME
TIME_SYSTEM    = UTC
MEAN_ELEMENT_THEORY = SGP/SGP4

EPOCH          = 2026-03-11T17:53:27.001824
MEAN_MOTION    = 15.17856770
ECCENTRICITY   = .0010424
INCLINATION    = 97.4898
RA_OF_ASC_NODE = 199.7391
ARG_OF_PERICENTER = 189.3816
MEAN_ANOMALY   = 170.7225

EPHEMERIS_TYPE = 0
CLASSIFICATION_TYPE = U
NORAD_CAT_ID   = 67747
ELEMENT_SET_NO = 999
REV_AT_EPOCH   = 417
BSTAR          = .49914E-3
MEAN_MOTION_DOT = .10059E-3
MEAN_MOTION_DDOT = 0

CCSDS_OMM_VERS = 2.0
CREATION_DATE  = 
ORIGINATOR     = 

OBJECT_NAME    = 2026-027C
OBJECT_ID      = 2026-027C
CENTER_NAME    = EARTH
REF_FRAME      = TEME
TIME_SYSTEM    = UTC
MEAN_ELEMENT_THEORY = SGP/SGP4

EPOCH          = 2026-03-11T17:51:24.376032
MEAN_MOTION    = 15.17848127
ECCENTRICITY   = .0010802
INCLINATION    = 97.4910
RA_OF_ASC_NODE = 199.7452
ARG_OF_PERICENTER = 191.6435
MEAN_ANOMALY   = 168.4551

EPHEMERIS_TYPE = 0
CLASSIFICATION_TYPE = U
NORAD_CAT_ID   = 67748
ELEMENT_SET_NO = 999
REV_AT_EPOCH   = 417
BSTAR          = .34087E-3
MEAN_MOTION_DOT = .6844E-4
MEAN_MOTION_DDOT = 0

CCSDS_OMM_VERS = 2.0
CREATION_DATE  = 
ORIGINATOR     = 

OBJECT_NAME    = 2026-027D
OBJECT_ID      = 2026-027D
CENTER_NAME    = EARTH
REF_FRAME      = TEME
TIME_SYSTEM    = UTC
MEAN_ELEMENT_THEORY = SGP/SGP4

EPOCH          = 2026-03-11T20:54:54.861120
MEAN_MOTION    = 15.18222410
ECCENTRICITY   = .0010388
INCLINATION    = 97.4903
RA_OF_ASC_NODE = 199.8800
ARG_OF_PERICENTER = 196.3287
MEAN_ANOMALY   = 163.7614

EPHEMERIS_TYPE = 0
CLASSIFICATION_TYPE = U
NORAD_CAT_ID   = 67749
ELEMENT_SET_NO = 999
REV_AT_EPOCH   = 414
BSTAR          = .44172E-3
MEAN_MOTION_DOT = .8987E-4
MEAN_MOTION_DDOT = 0

CCSDS_OMM_VERS = 2.0
CREATION_DATE  = 
ORIGINATOR     = 

OBJECT_NAME    = 2026-027E
OBJECT_ID      = 2026-027E
CENTER_NAME    = EARTH
REF_FRAME      = TEME
TIME_SYSTEM    = UTC
MEAN_ELEMENT_THEORY = SGP/SGP4

EPOCH          = 2026-03-11T20:55:19.566336
MEAN_MOTION    = 15.18166593
ECCENTRICITY   = .0009662
INCLINATION    = 97.4914
RA_OF_ASC_NODE = 199.8835
ARG_OF_PERICENTER = 196.9697
MEAN_ANOMALY   = 163.1215

EPHEMERIS_TYPE = 0
CLASSIFICATION_TYPE = U
NORAD_CAT_ID   = 67750
ELEMENT_SET_NO = 999
REV_AT_EPOCH   = 419
BSTAR          = .42948E-3
MEAN_MOTION_DOT = .872E-4
MEAN_MOTION_DDOT = 0

CCSDS_OMM_VERS = 2.0
CREATION_DATE  = 
ORIGINATOR     = 

OBJECT_NAME    = 2026-027F
OBJECT_ID      = 2026-027F
CENTER_NAME    = EARTH
REF_FRAME      = TEME
TIME_SYSTEM    = UTC
MEAN_ELEMENT_THEORY = SGP/SGP4

EPOCH          = 2026-03-09T19:49:10.682112
MEAN_MOTION    = 15.18180546
ECCENTRICITY   = .00096725
INCLINATION    = 97.4922
RA_OF_ASC_NODE = 197.8630
ARG_OF_PERICENTER = 203.5802
MEAN_ANOMALY   = 156.4990

EPHEMERIS_TYPE = 0
CLASSIFICATION_TYPE = U
NORAD_CAT_ID   = 67751
ELEMENT_SET_NO = 999
REV_AT_EPOCH   = 388
BSTAR          = .22390931E-3
MEAN_MOTION_DOT = .4513E-4
MEAN_MOTION_DDOT = 0

CCSDS_OMM_VERS = 2.0
CREATION_DATE  = 
ORIGINATOR     = 

OBJECT_NAME    = 2026-027G
OBJECT_ID      = 2026-027G
CENTER_NAME    = EARTH
REF_FRAME      = TEME
TIME_SYSTEM    = UTC
MEAN_ELEMENT_THEORY = SGP/SGP4

EPOCH          = 2026-03-11T19:56:58.691040
MEAN_MOTION    = 15.12181467
ECCENTRICITY   = .001214
INCLINATION    = 97.4910
RA_OF_ASC_NODE = 199.7831
ARG_OF_PERICENTER = 220.0102
MEAN_ANOMALY   = 140.0235

EPHEMERIS_TYPE = 0
CLASSIFICATION_TYPE = U
NORAD_CAT_ID   = 67752
ELEMENT_SET_NO = 999
REV_AT_EPOCH   = 418
BSTAR          = .48881E-3
MEAN_MOTION_DOT = .8388E-4
MEAN_MOTION_DDOT = 0

CCSDS_OMM_VERS = 2.0
CREATION_DATE  = 
ORIGINATOR     = 

OBJECT_NAME    = JIELONG-3 R/B
OBJECT_ID      = 2026-027H
CENTER_NAME    = EARTH
REF_FRAME      = TEME
TIME_SYSTEM    = UTC
MEAN_ELEMENT_THEORY = SGP/SGP4

EPOCH          = 2026-03-11T19:01:39.847584
MEAN_MOTION    = 15.78557834
ECCENTRICITY   = .0205235
INCLINATION    = 97.5119
RA_OF_ASC_NODE = 202.0006
ARG_OF_PERICENTER = 237.2384
MEAN_ANOMALY   = 120.8960

EPHEMERIS_TYPE = 0
CLASSIFICATION_TYPE = U
NORAD_CAT_ID   = 67753
ELEMENT_SET_NO = 999
REV_AT_EPOCH   = 431
BSTAR          = .73976E-3
MEAN_MOTION_DOT = .605823E-2
MEAN_MOTION_DDOT = .2363E-5

CCSDS_OMM_VERS = 2.0
CREATION_DATE  = 
ORIGINATOR     = 

OBJECT_NAME    = 2025-313BF
OBJECT_ID      = 2025-313BF
CENTER_NAME    = EARTH
REF_FRAME      = TEME
TIME_SYSTEM    = UTC
MEAN_ELEMENT_THEORY = SGP/SGP4

EPOCH          = 2026-03-11T11:01:50.824992
MEAN_MOTION    = 15.30327160
ECCENTRICITY   = .0007366
INCLINATION    = 97.3975
RA_OF_ASC_NODE = 147.1189
ARG_OF_PERICENTER = 328.5549
MEAN_ANOMALY   = 31.5250

EPHEMERIS_TYPE = 0
CLASSIFICATION_TYPE = U
NORAD_CAT_ID   = 67755
ELEMENT_SET_NO = 999
REV_AT_EPOCH   = 679
BSTAR          = .29569E-2
MEAN_MOTION_DOT = .87638E-3
MEAN_MOTION_DDOT = 0

CCSDS_OMM_VERS = 2.0
CREATION_DATE  = 
ORIGINATOR     = 

OBJECT_NAME    = 2026-028A
OBJECT_ID      = 2026-028A
CENTER_NAME    = EARTH
REF_FRAME      = TEME
TIME_SYSTEM    = UTC
MEAN_ELEMENT_THEORY = SGP/SGP4

EPOCH          = 2026-03-11T07:33:25.938720
MEAN_MOTION    = 1.00243597
ECCENTRICITY   = .0005803
INCLINATION    = 0.4667
RA_OF_ASC_NODE = 290.5183
ARG_OF_PERICENTER = 45.7297
MEAN_ANOMALY   = 23.7052

EPHEMERIS_TYPE = 0
CLASSIFICATION_TYPE = U
NORAD_CAT_ID   = 67756
ELEMENT_SET_NO = 999
REV_AT_EPOCH   = 27
BSTAR          = 0
MEAN_MOTION_DOT = -.105E-5
MEAN_MOTION_DDOT = 0

CCSDS_OMM_VERS = 2.0
CREATION_DATE  = 
ORIGINATOR     = 

OBJECT_NAME    = JAM-E JAM 1
OBJECT_ID      = 2026-028B
CENTER_NAME    = EARTH
REF_FRAME      = TEME
TIME_SYSTEM    = UTC
MEAN_ELEMENT_THEORY = SGP/SGP4

EPOCH          = 2026-03-11T19:03:32.927040
MEAN_MOTION    = 1.00230940
ECCENTRICITY   = .0005729
INCLINATION    = 0.4883
RA_OF_ASC_NODE = 286.0915
ARG_OF_PERICENTER = 134.3905
MEAN_ANOMALY   = 68.9226

EPHEMERIS_TYPE = 0
CLASSIFICATION_TYPE = U
NORAD_CAT_ID   = 67757
ELEMENT_SET_NO = 999
REV_AT_EPOCH   = 14
BSTAR          = 0
MEAN_MOTION_DOT = .156E-5
MEAN_MOTION_DDOT = 0

CCSDS_OMM_VERS = 2.0
CREATION_DATE  = 
ORIGINATOR     = 

OBJECT_NAME    = KUIPER-00159
OBJECT_ID      = 2026-030A
CENTER_NAME    = EARTH
REF_FRAME      = TEME
TIME_SYSTEM    = UTC
MEAN_ELEMENT_THEORY = SGP/SGP4

EPOCH          = 2026-03-11T18:42:31.023936
MEAN_MOTION    = 15.35921923
ECCENTRICITY   = .000456
INCLINATION    = 51.8850
RA_OF_ASC_NODE = 209.0891
ARG_OF_PERICENTER = 44.6705
MEAN_ANOMALY   = 315.4648

EPHEMERIS_TYPE = 0
CLASSIFICATION_TYPE = U
NORAD_CAT_ID   = 67764
ELEMENT_SET_NO = 999
REV_AT_EPOCH   = 541
BSTAR          = .12147E-2
MEAN_MOTION_DOT = .42997E-3
MEAN_MOTION_DDOT = 0

