2026-027A               
1 67746U 26027A   26070.81320463  .00009218  00000+0  45908-3 0  9997
2 67746  97.4903 199.8040 0010327 186.7768 173.3328 15.17757260  4182
2026-027B               
1 67747U 26027B   26070.74545141  .00010059  00000+0  49914-3 0  9998
2 67747  97.4898 199.7391 0010424 189.3816 170.7225 15.17856770  4177
2026-027C               
1 67748U 26027C   26070.74403213  .00006844  00000+0  34087-3 0  9994
2 67748  97.4910 199.7452 0010802 191.6435 168.4551 15.17848127  4177
2026-027D               
1 67749U 26027D   26070.87146830  .00008987  00000+0  44172-3 0  9994
2 67749  97.4903 199.8800 0010388 196.3287 163.7614 15.18222410  4141
2026-027E               
1 67750U 26027E   26070.87175424  .00008720  00000+0  42948-3 0  9991
2 67750  97.4914 199.8835 0009662 196.9697 163.1215 15.18166593  4192
2026-027F               
1 67751U 26027F   26068.82581808  .00004513  00000+0  22391-3 0  9997
2 67751  97.4922 197.8630 0009672 203.5802 156.4990 15.18180546  3881
2026-027G               
1 67752U 26027G   26070.83123485  .00008388  00000+0  48881-3 0  9991
2 67752  97.4910 199.7831 0012140 220.0102 140.0235 15.12181467  4186
JIELONG-3 R/B           
1 67753U 26027H   26070.79282231  .00605823  23630-5  73976-3 0  9992
2 67753  97.5119 202.0006 0205235 237.2384 120.8960 15.78557834  4315
2025-313BF              
1 67755U 25313BF  26070.45961603  .00087638  00000+0  29569-2 0  9997
2 67755  97.3975 147.1189 0007366 328.5549  31.5250 15.30327160  6797
2026-028A               
1 67756U 26028A   26070.31488355 -.00000105  00000+0  00000+0 0  9996
2 67756   0.4667 290.5183 0005803  45.7297  23.7052  1.00243597   273
JAM-E JAM 1             
1 67757U 26028B   26070.79413110  .00000156  00000+0  00000+0 0  9991
2 67757   0.4883 286.0915 0005729 134.3905  68.9226  1.00230940   143
KUIPER-00159            
1 67764U 26030A   26070.77952574  .00042997  00000+0  12147-2 0  9999
2 67764  51.8850 209.0891 0004560  44.6705 315.4648 15.35921923  5410
